{
    "links": {
        "self": "http://www.neowsapp.com/rest/v1/neo/3883099?api_key=iIulBulltgU6a56xZRHN4H3l9WmuAYTsLGpBGhQ2"
    },
    "id": "3883099",
    "neo_reference_id": "3883099",
    "name": "(2019 UW7)",
    "designation": "2019 UW7",
    "nasa_jpl_url": "http://ssd.jpl.nasa.gov/sbdb.cgi?sstr=3883099",
    "absolute_magnitude_h": 27.3,
    "estimated_diameter": {
        "kilometers": {
            "estimated_diameter_min": 0.0092162655,
            "estimated_diameter_max": 0.0206081961
        },
        "meters": {
            "estimated_diameter_min": 9.216265485,
            "estimated_diameter_max": 20.6081961232
        },
        "miles": {
            "estimated_diameter_min": 0.0057267201,
            "estimated_diameter_max": 0.0128053354
        },
        "feet": {
            "estimated_diameter_min": 30.2370924539,
            "estimated_diameter_max": 67.6121941689
        }
    },
    "is_potentially_hazardous_asteroid": false,
    "close_approach_data": [
        {
            "close_approach_date": "1987-11-24",
            "close_approach_date_full": "1987-Nov-24 17:37",
            "epoch_date_close_approach": 564773820000,
            "relative_velocity": {
                "kilometers_per_second": "21.1743975643",
                "kilometers_per_hour": "76227.831231525",
                "miles_per_hour": "47365.0099116106"
            },
            "miss_distance": {
                "astronomical": "0.3741359326",
                "lunar": "145.5388777814",
                "kilometers": "55969938.607423562",
                "miles": "34778107.1683946756"
            },
            "orbiting_body": "Earth"
        },
        {
            "close_approach_date": "2019-10-24",
            "close_approach_date_full": "2019-Oct-24 10:29",
            "epoch_date_close_approach": 1571912940000,
            "relative_velocity": {
                "kilometers_per_second": "10.1768397868",
                "kilometers_per_hour": "36636.6232324213",
                "miles_per_hour": "22764.5729190565"
            },
            "miss_distance": {
                "astronomical": "0.0085429735",
                "lunar": "3.3232166915",
                "kilometers": "1278010.639066445",
                "miles": "794118.987329141"
            },
            "orbiting_body": "Earth"
        },
        {
            "close_approach_date": "2187-11-24",
            "close_approach_date_full": "2187-Nov-24 18:14",
            "epoch_date_close_approach": 6876209640000,
            "relative_velocity": {
                "kilometers_per_second": "19.2889385292",
                "kilometers_per_hour": "69440.1787049692",
                "miles_per_hour": "43147.4265958738"
            },
            "miss_distance": {
                "astronomical": "0.3146422653",
                "lunar": "122.3958412017",
                "kilometers": "47069812.700854911",
                "miles": "29247825.3726273318"
            },
            "orbiting_body": "Earth"
        }
    ],
    "orbital_data": {
        "orbit_id": "9",
        "orbit_determination_date": "2019-11-04 04:55:57",
        "first_observation_date": "2019-10-26",
        "last_observation_date": "2019-11-04",
        "data_arc_in_days": 9,
        "observations_used": 74,
        "orbit_uncertainty": "7",
        "minimum_orbit_intersection": ".00328307",
        "jupiter_tisserand_invariant": "3.446",
        "epoch_osculation": "2459000.5",
        "eccentricity": ".5613996837823367",
        "semi_major_axis": "2.187167856136234",
        "inclination": "5.963829622608744",
        "ascending_node_longitude": "210.2072818935961",
        "orbital_period": "1181.467008494666",
        "perihelion_distance": ".9592925133224609",
        "perihelion_argument": "152.1834581539539",
        "aphelion_distance": "3.415043198950007",
        "perihelion_time": "2458759.209400268634",
        "mean_anomaly": "73.52267585869208",
        "mean_motion": ".3047059269633641",
        "equinox": "J2000",
        "orbit_class": {
            "orbit_class_type": "APO",
            "orbit_class_description": "Near-Earth asteroid orbits which cross the Earth’s orbit similar to that of 1862 Apollo",
            "orbit_class_range": "a (semi-major axis) > 1.0 AU; q (perihelion) < 1.017 AU"
        }
    },
    "is_sentry_object": false
}